NORAD_CAT_ID,OBJECT_NAME,OBJECT_TYPE,EPOCH,MEAN_MOTION,ECCENTRICITY,INCLINATION,RA_OF_ASC_NODE,ARG_OF_PERICENTER,MEAN_ANOMALY,BSTAR,MEAN_MOTION_DOT,MEAN_MOTION_DDOT,TLE_LINE0,TLE_LINE1,TLE_LINE2,SEMIMAJOR_AXIS,PERIOD,APOGEE,PERIGEE,DECAYED
52304.0,STARLINK-3744,PAYLOAD,2022-10-30 09:46:58,15.08844019,0.0001998,53.2179,194.1156,46.933,313.1829,-7.232e-05,-1.439e-05,0.0,0 STARLINK-3744,1 52304U 22041AV  22303.40761752 -.00001439  00000-0 -72320-4 0  9992,2 52304  53.2179 194.1156 0001998  46.9330 313.1829 15.08844019 29516,6917.868,95.437,541.115,538.351,0.0
52304.0,STARLINK-3744,PAYLOAD,2022-10-30 17:43:54,15.08825783,0.000195,53.2191,192.6299,56.5068,303.6111,1.3708e-05,-7e-07,0.0,0 STARLINK-3744,1 52304U 22041AV  22303.73882383 -.00000070  00000-0  13708-4 0  9996,2 52304  53.2191 192.6299 0001950  56.5068 303.6111 15.08825783 29564,6917.924,95.438,541.138,538.44,0.0
52304.0,STARLINK-3744,PAYLOAD,2022-10-31 09:37:46,15.08826593,0.0001958,53.2182,189.6561,48.6409,311.4752,-0.0001318,-2.384e-05,0.0,0 STARLINK-3744,1 52304U 22041AV  22304.40123345 -.00002384  00000-0 -13180-3 0  9991,2 52304  53.2182 189.6561 0001958  48.6409 311.4752 15.08826593 29660,6917.920999999999,95.438,541.141,538.432,0.0
52304.0,STARLINK-3744,PAYLOAD,2022-10-31 15:59:18,15.08835202,0.0001875999999999,53.2176,188.4637,45.9488,314.1658,-0.00017513,-3.074e-05,0.0,0 STARLINK-3744,1 52304U 22041AV  22304.66619150 -.00003074  00000-0 -17513-3 0  9994,2 52304  53.2176 188.4637 0001876  45.9488 314.1658 15.08835202 29707,6917.895,95.438,541.058,538.462,0.0
52304.0,STARLINK-3744,PAYLOAD,2022-11-01 01:31:37,15.08851213,0.0001788,53.217,186.6811,57.9697,302.1469,-0.00034396,-5.76e-05,0.0,0 STARLINK-3744,1 52304U 22041AV  22305.06362691 -.00005760  00000-0 -34396-3 0  9996,2 52304  53.2170 186.6811 0001788  57.9697 302.1469 15.08851213 30981,6917.846,95.437,540.948,538.474,0.0
52304.0,STARLINK-3744,PAYLOAD,2022-11-01 09:28:32,15.08846299,0.0001422,53.217,185.1944,58.2435,301.8696,-0.00017176,-3.021e-05,0.0,0 STARLINK-3744,1 52304U 22041AV  22305.39482455 -.00003021  00000-0 -17176-3 0  9998,2 52304  53.2170 185.1944 0001422  58.2435 301.8696 15.08846299 29817,6917.861,95.437,540.71,538.742,0.0
52304.0,STARLINK-3744,PAYLOAD,2022-11-02 09:19:19,15.08834269,0.000147,53.2171,180.7333,34.3905,325.7183,0.00013536,1.867e-05,0.0,0 STARLINK-3744,1 52304U 22041AV  22306.38842434  .00001867  00000-0  13536-3 0  9995,2 52304  53.2171 180.7333 0001470  34.3905 325.7183 15.08834269 31184,6917.898,95.438,540.78,538.746,0.0
52304.0,STARLINK-3744,PAYLOAD,2022-11-03 01:13:13,15.08821015,0.0001941,53.2173,177.7598,48.7225,311.3934,-3.7645e-05,-8.87e-06,0.0,0 STARLINK-3744,1 52304U 22041AV  22307.05084657 -.00000887  00000-0 -37645-4 0  9996,2 52304  53.2173 177.7598 0001941  48.7225 311.3934 15.08821015 31283,6917.938,95.439,541.146,538.461,0.0
52304.0,STARLINK-3744,PAYLOAD,2022-11-03 09:10:08,15.08830185,0.0001858,53.2182,176.2727,50.595,309.5206,-1.6405e-05,-5.49e-06,0.0,0 STARLINK-3744,1 52304U 22041AV  22307.38204200 -.00000549  00000-0 -16405-4 0  9996,2 52304  53.2182 176.2727 0001858  50.5950 309.5206 15.08830185 31339,6917.91,95.438,541.061,538.49,0.0
52304.0,STARLINK-3744,PAYLOAD,2022-11-03 15:31:41,15.08832975,0.0001756,53.219,175.0836,48.1321,311.9821,-7.576e-05,-1.493e-05,0.0,0 STARLINK-3744,1 52304U 22041AV  22307.64700341 -.00001493  00000-0 -75760-4 0  9990,2 52304  53.2190 175.0836 0001756  48.1321 311.9821 15.08832975 30156,6917.901999999999,95.438,540.982,538.552,0.0
52304.0,STARLINK-3744,PAYLOAD,2022-11-04 01:03:58,15.08845126,0.0002167,53.213,173.2998,49.6996,310.4185,7.8811e-05,9.66e-06,0.0,0 STARLINK-3744,1 52304U 22041AV  22308.04442871  .00000966  00000-0  78811-4 0  9998,2 52304  53.2130 173.2998 0002167  49.6996 310.4185 15.08845126 31431,6917.865,95.437,541.229,538.231,0.0
52304.0,STARLINK-3744,PAYLOAD,2022-11-04 15:22:26,15.08843426,0.0001903,53.2137,170.6222,53.1612,306.9554,0.00017134,2.44e-05,0.0,0 STARLINK-3744,1 52304U 22041AV  22308.64058326  .00002440  00000-0  17134-3 0  9991,2 52304  53.2137 170.6222 0001903  53.1612 306.9554 15.08843426 30307,6917.87,95.437,541.0509999999998,538.418,0.0
52304.0,STARLINK-3744,PAYLOAD,2022-11-05 00:54:46,15.08833489,0.0001759,53.2171,168.8396,45.8157,314.298,2.7297e-05,1.46e-06,0.0,0 STARLINK-3744,1 52304U 22041AV  22309.03803473  .00000146  00000-0  27297-4 0  9999,2 52304  53.2171 168.8396 0001759  45.8157 314.2980 15.08833489 31581,6917.9,95.438,540.982,538.548,0.0
52304.0,STARLINK-3744,PAYLOAD,2022-11-05 07:16:19,15.08817753,0.0001827,53.2168,167.6499,33.1949,326.9157,0.00019027,2.7399999999999995e-05,0.0,0 STARLINK-3744,1 52304U 22041AV  22309.30299987  .00002740  00000-0  19027-3 0  9991,2 52304  53.2168 167.6499 0001827  33.1949 326.9157 15.08817753 31620,6917.948,95.439,541.077,538.549,0.0
52304.0,STARLINK-3744,PAYLOAD,2022-11-05 18:23:58,15.08928743,0.0002675,53.2161,165.5689,46.9877,313.1339,-0.0011074,-0.00017914,0.0,0 STARLINK-3744,1 52304U 22041AV  22309.76665424 -.00017914  00000-0 -11074-2 0  9998,2 52304  53.2161 165.5689 0002675  46.9877 313.1339 15.08928743 31694,6917.609,95.432,541.325,537.624,0.0
52304.0,STARLINK-3744,PAYLOAD,2022-11-06 00:45:32,15.08847608,0.000197,53.2161,164.3795,44.2154,315.8995,-6.818e-05,-1.373e-05,0.0,0 STARLINK-3744,1 52304U 22041AV  22310.03163061 -.00001373  00000-0 -68180-4 0  9994,2 52304  53.2161 164.3795 0001970  44.2154 315.8995 15.08847608 31737,6917.857,95.437,541.085,538.359,0.0
52304.0,STARLINK-3744,PAYLOAD,2022-11-06 18:14:48,15.08828241,0.0001986,53.2163,161.1081,43.1518,316.9629,-2.7881e-05,-7.32e-06,0.0,0 STARLINK-3744,1 52304U 22041AV  22310.76028171 -.00000732  00000-0 -27881-4 0  9997,2 52304  53.2163 161.1081 0001986  43.1518 316.9629 15.08828241 31841,6917.916,95.438,541.155,538.4069999999998,0.0
52304.0,STARLINK-3744,PAYLOAD,2022-11-07 18:05:35,15.08831075,0.0001919,53.217,156.6481,45.2576,314.8572,2.0926e-05,4.5e-07,0.0,0 STARLINK-3744,1 52304U 22041AV  22311.75388605  .00000045  00000-0  20926-4 0  9996,2 52304  53.2170 156.6481 0001919  45.2576 314.8572 15.08831075 30779,6917.908,95.438,541.1,538.445,0.0
52304.0,STARLINK-3744,PAYLOAD,2022-11-08 00:27:08,15.08837096,0.0001876,53.2164,155.4569,38.6661,321.4466,1.2435e-05,-9.000000000000002e-07,0.0,0 STARLINK-3744,1 52304U 22041AV  22312.01884335 -.00000090  00000-0  12435-4 0  9994,2 52304  53.2164 155.4569 0001876  38.6661 321.4466 15.08837096 32035,6917.889,95.438,541.052,538.456,0.0
52304.0,STARLINK-3744,PAYLOAD,2022-11-08 06:48:40,15.08835051,0.0001915,53.2172,154.2687,46.1852,313.9299,0.00014085,1.954e-05,0.0,0 STARLINK-3744,1 52304U 22041AV  22312.28379866  .00001954  00000-0  14085-3 0  9992,2 52304  53.2172 154.2687 0001915  46.1852 313.9299 15.08835051 30859,6917.896,95.438,541.085,538.436,0.0
52304.0,STARLINK-3744,PAYLOAD,2022-11-08 19:31:44,15.08845538,0.000194,53.217,151.8895,46.4592,313.6561,0.00020188,2.927e-05,0.0,0 STARLINK-3744,1 52304U 22041AV  22312.81371017  .00002927  00000-0  20188-3 0  9993,2 52304  53.2170 151.8895 0001940  46.4592 313.6561 15.08845538 30932,6917.863,95.437,541.071,538.386,0.0
52304.0,STARLINK-3744,PAYLOAD,2022-11-09 13:00:59,15.08848365,0.0002613,53.2119,148.6174,60.0598,300.0654,3.0336e-05,1.94e-06,0.0,0 STARLINK-3744,1 52304U 22041AV  22313.54235284  .00000194  00000-0  30336-4 0  9990,2 52304  53.2119 148.6174 0002613  60.0598 300.0654 15.08848365 31042,6917.855,95.437,541.5269999999998,537.9119999999998,0.0
52304.0,STARLINK-3744,PAYLOAD,2022-11-09 19:22:34,15.08816804,0.0001994,53.2168,147.4292,44.8243,315.291,-0.00012739,-2.314e-05,0.0,0 STARLINK-3744,1 52304U 22041AV  22313.80733852 -.00002314  00000-0 -12739-3 0  9997,2 52304  53.2168 147.4292 0001994  44.8243 315.2910 15.08816804 32308,6917.951,95.439,541.196,538.437,0.0
52304.0,STARLINK-3744,PAYLOAD,2022-11-10 11:16:26,15.08818332,0.000194,53.2165,144.4551,43.3365,316.7779,-0.00022475,-3.861e-05,0.0,0 STARLINK-3744,1 52304U 22041AV  22314.46974818 -.00003861  00000-0 -22475-3 0  9995,2 52304  53.2165 144.4551 0001940  43.3365 316.7779 15.08818332 31182,6917.946999999999,95.439,541.154,538.47,0.0
52304.0,STARLINK-3744,PAYLOAD,2022-11-10 19:13:21,15.08831042,0.0001998,53.2166,142.9692,43.7163,316.3987,-0.0001691,-2.978e-05,0.0,0 STARLINK-3744,1 52304U 22041AV  22314.80094197 -.00002978  00000-0 -16910-3 0  9991,2 52304  53.2166 142.9692 0001998  43.7163 316.3987 15.08831042 31231,6917.908,95.438,541.155,538.391,0.0
52304.0,STARLINK-3744,PAYLOAD,2022-11-10 22:24:07,15.08832287,0.0001993,53.2161,142.3727,49.6039,310.5127,-0.00015075,-2.686e-05,0.0,0 STARLINK-3744,1 52304U 22041AV  22314.93342104 -.00002686  00000-0 -15075-3 0  9996,2 52304  53.2161 142.3727 0001993  49.6039 310.5127 15.08832287 32472,6917.904,95.438,541.148,538.39,0.0
52304.0,STARLINK-3744,PAYLOAD,2022-11-11 12:42:35,15.08829735,0.0001963,53.2156,139.6979,46.3478,313.7676,6.4852e-05,7.44e-06,0.0,0 STARLINK-3744,1 52304U 22041AV  22315.52957686  .00000744  00000-0  64852-4 0  9998,2 52304  53.2156 139.6979 0001963  46.3478 313.7676 15.08829735 32560,6917.9119999999975,95.438,541.135,538.419,0.0
52304.0,STARLINK-3744,PAYLOAD,2022-11-11 19:04:08,15.08823441,0.0001989,53.2169,138.5094,43.25,316.8648,0.00019059,2.745e-05,0.0,0 STARLINK-3744,1 52304U 22041AV  22315.79453842  .00002745  00000-0  19059-3 0  9993,2 52304  53.2169 138.5094 0001989  43.2500 316.8648 15.08823441 31380,6917.931,95.439,541.172,538.42,0.0
52304.0,STARLINK-3744,PAYLOAD,2022-11-12 12:33:22,15.08833407,0.0001866,53.217,135.2377,45.7908,314.3237,0.00019481,2.813e-05,0.0,0 STARLINK-3744,1 52304U 22041AV  22316.52317756  .00002813  00000-0  19481-3 0  9993,2 52304  53.2170 135.2377 0001866  45.7908 314.3237 15.08833407 31495,6917.901,95.438,541.056,538.475,0.0
